{"type": "FeatureCollection", "features": [ {"type": "Feature", "properties": {"norad_id": 35890, "name": "COSMOS 2251 DEB", "group": "cosmos-2251-debris", "lat": -58.35930936503783, "lon": -160.5628220442629, "alt_km": 684.4310825303128, "timestamp": "2025-12-20T18:51:32.110010+00:00", "meta": {"OBJECT_NAME": "COSMOS 2251 DEB", "OBJECT_ID": "1993-036AUD", "EPOCH": "2025-12-16T22:53:46.078656", "MEAN_MOTION": 14.57543512, "ECCENTRICITY": 0.00539437, "INCLINATION": 73.9365, "RA_OF_ASC_NODE": 234.6414, "ARG_OF_PERICENTER": 358.5125, "MEAN_ANOMALY": 1.5869, "EPHEMERIS_TYPE": 0, "CLASSIFICATION_TYPE": "U", "NORAD_CAT_ID": 35890, "ELEMENT_SET_NO": 999, "REV_AT_EPOCH": 65212, "BSTAR": 0.0012168345, "MEAN_MOTION_DOT": 5.621e-05, "MEAN_MOTION_DDOT": 0}, "tle": {"line1": "1 35890U 93036AUD 25350.95400554  .00005621  00000+0  12168-2 0  9996", "line2": "2 35890  73.9365 234.6414 0053943 358.5125   1.5869 14.57543512652129"}}, "geometry": {"type": "Point", "coordinates": [-160.5628220442629, -58.35930936503783]}}, {"type": "Feature", "properties": {"norad_id": 35891, "name": "COSMOS 2251 DEB", "group": "cosmos-2251-debris", "lat": -54.07064493955251, "lon": -80.0518064397843, "alt_km": 445.9619299618207, "timestamp": "2025-12-20T18:51:32.110019+00:00", "meta": {"OBJECT_NAME": "COSMOS 2251 DEB", "OBJECT_ID": "1993-036AUE", "EPOCH": "2025-12-19T23:02:38.567040", "MEAN_MOTION": 15.33900235, "ECCENTRICITY": 0.0042412, "INCLINATION": 73.9897, "RA_OF_ASC_NODE": 78.3766, "ARG_OF_PERICENTER": 207.7893, "MEAN_ANOMALY": 152.1046, "EPHEMERIS_TYPE": 0, "CLASSIFICATION_TYPE": "U", "NORAD_CAT_ID": 35891, "ELEMENT_SET_NO": 999, "REV_AT_EPOCH": 67331, "BSTAR": 0.0008769, "MEAN_MOTION_DOT": 0.00029674, "MEAN_MOTION_DDOT": 0}, "tle": {"line1": "1 35891U 93036AUE 25353.96016860  .00029674  00000+0  87690-3 0  9991", "line2": "2 35891  73.9897  78.3766 0042412 207.7893 152.1046 15.33900235673317"}}, "geometry": {"type": "Point", "coordinates": [-80.0518064397843, -54.07064493955251]}}, {"type": "Feature", "properties": {"norad_id": 35895, "name": "COSMOS 2251 DEB", "group": "cosmos-2251-debris", "lat": -31.154374795392698, "lon": -36.24801425344837, "alt_km": 922.5147629920011, "timestamp": "2025-12-20T18:51:32.110029+00:00", "meta": {"OBJECT_NAME": "COSMOS 2251 DEB", "OBJECT_ID": "1993-036AUJ", "EPOCH": "2025-12-20T05:18:32.719392", "MEAN_MOTION": 14.01557935, "ECCENTRICITY": 0.0199682, "INCLINATION": 74.0503, "RA_OF_ASC_NODE": 334.6863, "ARG_OF_PERICENTER": 71.097, "MEAN_ANOMALY": 291.1695, "EPHEMERIS_TYPE": 0, "CLASSIFICATION_TYPE": "U", "NORAD_CAT_ID": 35895, "ELEMENT_SET_NO": 999, "REV_AT_EPOCH": 59117, "BSTAR": 0.0011304, "MEAN_MOTION_DOT": 2.013e-05, "MEAN_MOTION_DDOT": 0}, "tle": {"line1": "1 35895U 93036AUJ 25354.22121203  .00002013  00000+0  11304-2 0  9999", "line2": "2 35895  74.0503 334.6863 0199682  71.0970 291.1695 14.01557935591179"}}, "geometry": {"type": "Point", "coordinates": [-36.24801425344837, -31.154374795392698]}}, {"type": "Feature", "properties": {"norad_id": 35898, "name": "COSMOS 2251 DEB", "group": "cosmos-2251-debris", "lat": 11.342229952259489, "lon": -75.50795413347417, "alt_km": 548.7123550323367, "timestamp": "2025-12-20T18:51:32.110040+00:00", "meta": {"OBJECT_NAME": "COSMOS 2251 DEB", "OBJECT_ID": "1993-036AUM", "EPOCH": "2025-12-17T02:32:30.687072", "MEAN_MOTION": 14.94779467, "ECCENTRICITY": 0.00792454, "INCLINATION": 73.9918, "RA_OF_ASC_NODE": 288.6268, "ARG_OF_PERICENTER": 70.8936, "MEAN_ANOMALY": 307.548, "EPHEMERIS_TYPE": 0, "CLASSIFICATION_TYPE": "U", "NORAD_CAT_ID": 35898, "ELEMENT_SET_NO": 999, "REV_AT_EPOCH": 66875, "BSTAR": 0.00065982938, "MEAN_MOTION_DOT": 7.606e-05, "MEAN_MOTION_DDOT": 0}, "tle": {"line1": "1 35898U 93036AUM 25351.10591073  .00007606  00000+0  65983-3 0  9998", "line2": "2 35898  73.9918 288.6268 0079245  70.8936 307.5480 14.94779467668759"}}, "geometry": {"type": "Point", "coordinates": [-75.50795413347417, 11.342229952259489]}}, {"type": "Feature", "properties": {"norad_id": 35901, "name": "COSMOS 2251 DEB", "group": "cosmos-2251-debris", "lat": 21.11511430839353, "lon": 12.657956610993098, "alt_km": 538.8387893939935, "timestamp": "2025-12-20T18:51:32.110049+00:00", "meta": {"OBJECT_NAME": "COSMOS 2251 DEB", "OBJECT_ID": "1993-036AUQ", "EPOCH": "2025-12-20T07:41:31.538688", "MEAN_MOTION": 15.07712377, "ECCENTRICITY": 0.00075811, "INCLINATION": 74.0111, "RA_OF_ASC_NODE": 7.2587, "ARG_OF_PERICENTER": 340.2709, "MEAN_ANOMALY": 37.3861, "EPHEMERIS_TYPE": 0, "CLASSIFICATION_TYPE": "U", "NORAD_CAT_ID": 35901, "ELEMENT_SET_NO": 999, "REV_AT_EPOCH": 86241, "BSTAR": 0.0022779297, "MEAN_MOTION_DOT": 0.00034936, "MEAN_MOTION_DDOT": 0}, "tle": {"line1": "1 35901U 93036AUQ 25354.32050392  .00034936  00000+0  22779-2 0  9995", "line2": "2 35901  74.0111   7.2587 0007581 340.2709  37.3861 15.07712377862418"}}, "geometry": {"type": "Point", "coordinates": [12.657956610993098, 21.11511430839353]}}, {"type": "Feature", "properties": {"norad_id": 35902, "name": "COSMOS 2251 DEB", "group": "cosmos-2251-debris", "lat": 38.74731728528727, "lon": 26.649658137831334, "alt_km": 869.9405309230588, "timestamp": "2025-12-20T18:51:32.110059+00:00", "meta": {"OBJECT_NAME": "COSMOS 2251 DEB", "OBJECT_ID": "1993-036AUR", "EPOCH": "2025-12-19T15:17:09.843072", "MEAN_MOTION": 14.26937143, "ECCENTRICITY": 0.0102282, "INCLINATION": 73.9823, "RA_OF_ASC_NODE": 222.0626, "ARG_OF_PERICENTER": 335.5486, "MEAN_ANOMALY": 24.0827, "EPHEMERIS_TYPE": 0, "CLASSIFICATION_TYPE": "U", "NORAD_CAT_ID": 35902, "ELEMENT_SET_NO": 999, "REV_AT_EPOCH": 61228, "BSTAR": 0.00057286, "MEAN_MOTION_DOT": 1.445e-05, "MEAN_MOTION_DDOT": 0}, "tle": {"line1": "1 35902U 93036AUR 25353.63691948  .00001445  00000+0  57286-3 0  9998", "line2": "2 35902  73.9823 222.0626 0102282 335.5486  24.0827 14.26937143612284"}}, "geometry": {"type": "Point", "coordinates": [26.649658137831334, 38.74731728528727]}}, {"type": "Feature", "properties": {"norad_id": 35905, "name": "COSMOS 2251 DEB", "group": "cosmos-2251-debris", "lat": 19.70630738888124, "lon": -159.63539839809366, "alt_km": 588.3861310825441, "timestamp": "2025-12-20T18:51:32.110069+00:00", "meta": {"OBJECT_NAME": "COSMOS 2251 DEB", "OBJECT_ID": "1993-036AUU", "EPOCH": "2025-12-19T20:20:40.701984", "MEAN_MOTION": 14.99109626, "ECCENTRICITY": 0.00907234, "INCLINATION": 74.0303, "RA_OF_ASC_NODE": 196.3814, "ARG_OF_PERICENTER": 274.7905, "MEAN_ANOMALY": 84.2926, "EPHEMERIS_TYPE": 0, "CLASSIFICATION_TYPE": "U", "NORAD_CAT_ID": 35905, "ELEMENT_SET_NO": 999, "REV_AT_EPOCH": 88689, "BSTAR": 0.00038534717, "MEAN_MOTION_DOT": 5.062e-05, "MEAN_MOTION_DDOT": 0}, "tle": {"line1": "1 35905U 93036AUU 25353.84769331  .00005062  00000+0  38535-3 0  9991", "line2": "2 35905  74.0303 196.3814 0090723 274.7905  84.2926 14.99109626886895"}}, "geometry": {"type": "Point", "coordinates": [-159.63539839809366, 19.70630738888124]}}, {"type": "Feature", "properties": {"norad_id": 35959, "name": "COSMOS 2251 DEB", "group": "cosmos-2251-debris", "lat": 66.51479049842017, "lon": -21.44739191735836, "alt_km": 762.5170729141528, "timestamp": "2025-12-20T18:51:32.110080+00:00", "meta": {"OBJECT_NAME": "COSMOS 2251 DEB", "OBJECT_ID": "1993-036AUZ", "EPOCH": "2025-12-20T03:27:21.166272", "MEAN_MOTION": 14.34140877, "ECCENTRICITY": 0.00218938, "INCLINATION": 74.033, "RA_OF_ASC_NODE": 298.509, "ARG_OF_PERICENTER": 16.9587, "MEAN_ANOMALY": 343.2292, "EPHEMERIS_TYPE": 0, "CLASSIFICATION_TYPE": "U", "NORAD_CAT_ID": 35959, "ELEMENT_SET_NO": 999, "REV_AT_EPOCH": 85034, "BSTAR": 8.8222868e-05, "MEAN_MOTION_DOT": 2.22e-06, "MEAN_MOTION_DDOT": 0}, "tle": {"line1": "1 35959U 93036AUZ 25354.14399498  .00000222  00000+0  88223-4 0  9990", "line2": "2 35959  74.0330 298.5090 0021893  16.9587 343.2292 14.34140877850346"}}, "geometry": {"type": "Point", "coordinates": [-21.44739191735836, 66.51479049842017]}}, {"type": "Feature", "properties": {"norad_id": 35961, "name": "COSMOS 2251 DEB", "group": "cosmos-2251-debris", "lat": -67.53576091789202, "lon": 54.24807459795889, "alt_km": 973.9711485755088, "timestamp": "2025-12-20T18:51:32.110090+00:00", "meta": {"OBJECT_NAME": "COSMOS 2251 DEB", "OBJECT_ID": "1993-036AVB", "EPOCH": "2025-12-18T21:15:12.372768", "MEAN_MOTION": 14.05418101, "ECCENTRICITY": 0.01915239, "INCLINATION": 73.9239, "RA_OF_ASC_NODE": 193.3704, "ARG_OF_PERICENTER": 125.5075, "MEAN_ANOMALY": 236.4097, "EPHEMERIS_TYPE": 0, "CLASSIFICATION_TYPE": "U", "NORAD_CAT_ID": 35961, "ELEMENT_SET_NO": 999, "REV_AT_EPOCH": 62768, "BSTAR": 0.0011788636, "MEAN_MOTION_DOT": 2.232e-05, "MEAN_MOTION_DDOT": 0}, "tle": {"line1": "1 35961U 93036AVB 25352.88555987  .00002232  00000+0  11789-2 0  9993", "line2": "2 35961  73.9239 193.3704 0191523 125.5075 236.4097 14.05418101627687"}}, "geometry": {"type": "Point", "coordinates": [54.24807459795889, -67.53576091789202]}}, {"type": "Feature", "properties": {"norad_id": 35979, "name": "COSMOS 2251 DEB", "group": "cosmos-2251-debris", "lat": -13.73949613935082, "lon": -141.37804510882208, "alt_km": 609.0187075255617, "timestamp": "2025-12-20T18:51:32.110100+00:00", "meta": {"OBJECT_NAME": "COSMOS 2251 DEB", "OBJECT_ID": "1993-036AVV", "EPOCH": "2025-12-19T21:49:20.667936", "MEAN_MOTION": 14.74720129, "ECCENTRICITY": 0.0059181, "INCLINATION": 74.0091, "RA_OF_ASC_NODE": 224.3569, "ARG_OF_PERICENTER": 354.8475, "MEAN_ANOMALY": 19.529, "EPHEMERIS_TYPE": 0, "CLASSIFICATION_TYPE": "U", "NORAD_CAT_ID": 35979, "ELEMENT_SET_NO": 999, "REV_AT_EPOCH": 88739, "BSTAR": 0.00048194, "MEAN_MOTION_DOT": 3.28e-05, "MEAN_MOTION_DDOT": 0}, "tle": {"line1": "1 35979U 93036AVV 25353.90926699  .00003280  00000+0  48194-3 0  9993", "line2": "2 35979  74.0091 224.3569 0059181 354.8475  19.5290 14.74720129887395"}}, "geometry": {"type": "Point", "coordinates": [-141.37804510882208, -13.73949613935082]}}]}